ORBCOMM FM20            
1 25416U 98046D   25248.47054793  .00001556  00000+0  56345-3 0  9997
2 25416  44.9936 161.0318 0002380 339.4337  20.6415 14.37351437415815
ORBCOMM FM16            
1 25417U 98046E   25248.57850680  .00001851  00000+0  63858-3 0  9993
2 25417  44.9926 151.0227 0005918 346.0858  13.9827 14.39103357415837
ORBCOMM FM15            
1 25418U 98046F   25248.08859914  .00002103  00000+0  72423-3 0  9998
2 25418  44.9958 158.7349 0005676 343.1091  16.9568 14.38744127415751
ORBCOMM FM14            
1 25419U 98046G   25248.22489179  .00002088  00000+0  71400-3 0  9993
2 25419  44.9946 156.0923 0004465 340.8924  19.1757 14.39119672415748
ORBCOMM FM13            
1 25420U 98046H   25248.47874317  .00001726  00000+0  61374-3 0  9991
2 25420  44.9963 163.6523 0006566 325.8677  34.1749 14.37837702414792
ORBCOMM FM21            
1 25475U 98053A   25248.50367684  .00001452  00000+0  52768-3 0  9990
2 25475  45.0074 249.1065 0003854 276.7944  83.2466 14.37487232408801
ORBCOMM FM22            
1 25476U 98053B   25248.48165386  .00001735  00000+0  60772-3 0  9991
2 25476  45.0055 243.4065 0005668 276.3355  83.6847 14.38566718408833
ORBCOMM FM23            
1 25477U 98053C   25248.49382953  .00001564  00000+0  56236-3 0  9994
2 25477  45.0072 251.1597 0004834 272.2542  87.7753 14.37687385408953
